NORAD_CAT_ID,OBJECT_NAME,OBJECT_TYPE,EPOCH,MEAN_MOTION,ECCENTRICITY,INCLINATION,RA_OF_ASC_NODE,ARG_OF_PERICENTER,MEAN_ANOMALY,BSTAR,MEAN_MOTION_DOT,MEAN_MOTION_DDOT,TLE_LINE0,TLE_LINE1,TLE_LINE2,SEMIMAJOR_AXIS,PERIOD,APOGEE,PERIGEE,DECAYED
50206.0,STARLINK-3258,PAYLOAD,2022-04-08 22:00:00,15.16346607,0.0001665,53.2174,182.1997,45.4383,80.5295,-0.039574,-0.00723538,0.0,0 STARLINK-3258,1 50206U 21125BC  22098.91667824 -.00723538  00000-0 -39574-1 0  9997,2 50206  53.2174 182.1997 0001665  45.4383  80.5295 15.16346607 18657,6895.03,94.965,518.043,515.747,0.0
50206.0,STARLINK-3258,PAYLOAD,2022-04-09 14:00:01,15.15326079,0.0002079,53.2174,179.1804,36.241,129.7192,-0.040696,-0.0072276,0.0,0 STARLINK-3258,1 50206U 21125BC  22099.58334491 -.00722760  00000-0 -40696-1 0  9995,2 50206  53.2174 179.1804 0002079  36.2410 129.7192 15.15326079  3655,6898.126,95.029,521.425,518.557,0.0
50206.0,STARLINK-3258,PAYLOAD,2022-04-09 22:00:00,15.14817031,0.0001749,53.2174,177.6705,46.0894,138.9485,-0.041365,-0.00723945,0.0,0 STARLINK-3258,1 50206U 21125BC  22099.91667824 -.00723945  00000-0 -41365-1 0  9991,2 50206  53.2174 177.6705 0001749  46.0894 138.9485 15.14817031  3655,6899.670999999999,95.061,522.743,520.3290000000002,0.0
50206.0,STARLINK-3258,PAYLOAD,2022-04-10 06:00:02,15.14306304,0.0001955,53.2175,176.1628,40.2526,163.3133,-0.041863,-0.0072226,0.0,0 STARLINK-3258,1 50206U 21125BC  22100.25002315 -.00722260  00000-0 -41863-1 0  9991,2 50206  53.2175 176.1628 0001955  40.2526 163.3133 15.14306304 18857,6901.222,95.093,524.437,521.738,0.0
50206.0,STARLINK-3258,PAYLOAD,2022-04-10 14:00:01,15.13795063,0.0002069,53.2174,174.6584,37.7647,183.5893,-0.042365,-0.00720555,0.0,0 STARLINK-3258,1 50206U 21125BC  22100.58334491 -.00720555  00000-0 -42365-1 0  9993,2 50206  53.2174 174.6584 0002069  37.7647 183.5893 15.13795063  3643,6902.776,95.125,526.069,523.2130000000002,0.0
50206.0,STARLINK-3258,PAYLOAD,2022-04-10 22:00:00,15.13287496,0.0001776,53.2175,173.1519,45.2664,193.3264,-0.043234,-0.00724547,0.0,0 STARLINK-3258,1 50206U 21125BC  22100.91667824 -.00724547  00000-0 -43234-1 0  9990,2 50206  53.2175 173.1519 0001776  45.2664 193.3264 15.13287496  3640,6904.319,95.157,527.411,524.9580000000002,0.0
50206.0,STARLINK-3258,PAYLOAD,2022-04-11 14:00:01,15.12264914,0.0001959,53.2175,170.14700000000005,38.3407,232.8916,-0.04419,-0.00719936,0.0,0 STARLINK-3258,1 50206U 21125BC  22101.58334491 -.00719936  00000-0 -44190-1 0  9993,2 50206  53.2175 170.1470 0001959  38.3407 232.8916 15.12264914 19069,6907.432,95.221,530.65,527.943,0.0
50206.0,STARLINK-3258,PAYLOAD,2022-04-11 22:00:00,15.11757517,0.0001781999999999,53.2175,168.6442,41.4926,245.1403,-0.045131,-0.00724538,0.0,0 STARLINK-3258,1 50206U 21125BC  22101.91667824 -.00724538  00000-0 -45131-1 0  9999,2 50206  53.2175 168.6442 0001782  41.4926 245.1403 15.11757517  3623,6908.977,95.253,532.073,529.611,0.0
50206.0,STARLINK-3258,PAYLOAD,2022-04-12 14:00:01,15.10734935,0.0001976,53.2175,165.6464,33.8897,281.7058,-0.046111,-0.00719827,0.0,0 STARLINK-3258,1 50206U 21125BC  22102.58334491 -.00719827  00000-0 -46111-1 0  9998,2 50206  53.2175 165.6464 0001976  33.8897 281.7058 15.10734935 19213,6912.094,95.318,535.325,532.594,0.0
50206.0,STARLINK-3258,PAYLOAD,2022-04-12 22:00:00,15.10186276,0.0001663,53.2178,164.1457,40.8572,288.3213,-0.043084,-0.00665991,0.0,0 STARLINK-3258,1 50206U 21125BC  22102.91667824 -.00665991  00000-0 -43084-1 0  9992,2 50206  53.2178 164.1457 0001663  40.8572 288.3213 15.10186276  3604,6913.768,95.352,536.783,534.484,0.0
50206.0,STARLINK-3258,PAYLOAD,2022-04-13 14:00:03,15.09078398,0.0001883,53.2175,161.1548,40.494,314.0986,-0.022131,-0.00338514,0.0,0 STARLINK-3258,1 50206U 21125BC  22103.58336806 -.00338514  00000-0 -22131-1 0  9997,2 50206  53.2175 161.1548 0001883  40.4940 314.0986 15.09078398 19365,6917.151999999999,95.422,540.319,537.714,0.0
50206.0,STARLINK-3258,PAYLOAD,2022-04-13 22:00:00,15.08837717,0.0001636999999999,53.2176,159.6571,47.6278,318.5685,-0.00010406,-1.944e-05,0.0,0 STARLINK-3258,1 50206U 21125BC  22103.91667824 -.00001944  00000-0 -10406-3 0  9999,2 50206  53.2176 159.6571 0001637  47.6278 318.5685 15.08837717 19412,6917.887,95.438,540.885,538.62,0.0
50206.0,STARLINK-3258,PAYLOAD,2022-04-14 08:00:01,15.08874319,0.0001679,53.2177,157.7771,45.1911,65.63600000000001,-0.0017534,-0.00028111,0.0,0 STARLINK-3258,1 50206U 21125BC  22104.33334491 -.00028111  00000-0 -17534-2 0  9990,2 50206  53.2177 157.7771 0001679  45.1911  65.6360 15.08874319 19472,6917.775,95.435,540.802,538.479,0.0
50206.0,STARLINK-3258,PAYLOAD,2022-04-14 14:00:01,15.08865754,0.0001832,53.2175,156.6557,42.7023,346.8451,-0.0023207,-0.00037059,0.0,0 STARLINK-3258,1 50206U 21125BC  22104.58334491 -.00037059  00000-0 -23207-2 0  9992,2 50206  53.2175 156.6557 0001832  42.7023 346.8451 15.08865754  3637,6917.802,95.436,540.934,538.399,0.0
50206.0,STARLINK-3258,PAYLOAD,2022-04-14 22:00:00,15.08812364,0.0001794,53.2172,155.1575,51.914,349.2644,0.00012211,1.654e-05,0.0,0 STARLINK-3258,1 50206U 21125BC  22104.91667824  .00001654  00000-0  12211-3 0  9992,2 50206  53.2172 155.1575 0001794  51.9140 349.2644 15.08812364  3637,6917.965,95.439,541.071,538.589,0.0
50206.0,STARLINK-3258,PAYLOAD,2022-04-15 14:00:01,15.08813348,0.0001988,53.2167,152.1667,47.8114,16.5244,0.0034753,0.00055417,0.0,0 STARLINK-3258,1 50206U 21125BC  22105.58334491  .00055417  00000-0  34753-2 0  9997,2 50206  53.2167 152.1667 0001988  47.8114  16.5244 15.08813348 19663,6917.962,95.439,541.202,538.452,0.0
50206.0,STARLINK-3258,PAYLOAD,2022-04-15 22:00:00,15.08829026,0.000181,53.2164,150.6685,52.4741,23.4497,0.0016248,0.00025658,0.0,0 STARLINK-3258,1 50206U 21125BC  22105.91667824  .00025658  00000-0  16248-2 0  9996,2 50206  53.2164 150.6685 0001810  52.4741  23.4497 15.08829026  3609,6917.9140000000025,95.438,541.031,538.5269999999998,0.0
50206.0,STARLINK-3258,PAYLOAD,2022-04-16 06:00:00,15.08863741,0.0001831,53.2163,149.1727,51.7371,35.7704,-0.0042486999999999,-0.00067319,0.0,0 STARLINK-3258,1 50206U 21125BC  22106.25001157 -.00067319  00000-0 -42487-2 0  9991,2 50206  53.2163 149.1727 0001831  51.7371  35.7704 15.08863741 19765,6917.808000000001,95.436,540.939,538.406,0.0
50206.0,STARLINK-3258,PAYLOAD,2022-04-16 14:00:01,15.08797015,0.0001883,53.2159,147.6775,43.7042,55.396,0.00058574,9.035e-05,0.0,0 STARLINK-3258,1 50206U 21125BC  22106.58334491  .00009035  00000-0  58574-3 0  9991,2 50206  53.2159 147.6775 0001883  43.7042  55.3960 15.08797015  3630,6918.012,95.44,541.179,538.5740000000002,0.0
50206.0,STARLINK-3258,PAYLOAD,2022-04-16 22:00:01,15.0877941,0.0001692,53.2158,146.1792,47.4945,63.2221,0.0018847,0.00029785,0.0,0 STARLINK-3258,1 50206U 21125BC  22106.91668981  .00029785  00000-0  18847-2 0  9994,2 50206  53.2158 146.1792 0001692  47.4945  63.2221 15.08779410 19862,6918.066,95.441,541.101,538.76,0.0
50206.0,STARLINK-3258,PAYLOAD,2022-04-17 14:00:01,15.08797404,0.000189,53.2156,143.1882,40.7047,93.0378,0.0045142,0.00072208,0.0,0 STARLINK-3258,1 50206U 21125BC  22107.58334491  .00072208  00000-0  45142-2 0  9990,2 50206  53.2156 143.1882 0001890  40.7047  93.0378 15.08797404  3596,6918.011,95.44,541.183,538.568,0.0
50206.0,STARLINK-3258,PAYLOAD,2022-04-17 22:00:00,15.08821747,0.0001696,53.2158,141.6899,44.35,100.9749,0.0022891,0.00036313,0.0,0 STARLINK-3258,1 50206U 21125BC  22107.91667824  .00036313  00000-0  22891-2 0  9999,2 50206  53.2158 141.6899 0001696  44.3500 100.9749 15.08821747  3595,6917.936,95.439,540.974,538.628,0.0
50206.0,STARLINK-3258,PAYLOAD,2022-04-18 08:00:01,15.08852758,0.0001906,53.2159,139.8206,43.5495,206.2672,-0.00078389,-0.00012747,0.0,0 STARLINK-3258,1 50206U 21125BC  22108.33334491 -.00012747  00000-0 -78389-3 0  9998,2 50206  53.2159 139.8206 0001906  43.5495 206.2672 15.08852758 20089,6917.840999999999,95.437,541.025,538.388,0.0
50206.0,STARLINK-3258,PAYLOAD,2022-04-18 14:00:01,15.08836263,0.0001971,53.2159,138.6986,40.2864,128.2333,0.0020788,0.00032948,0.0,0 STARLINK-3258,1 50206U 21125BC  22108.58334491  .00032948  00000-0  20788-2 0  9997,2 50206  53.2159 138.6986 0001971  40.2864 128.2333 15.08836263  3639,6917.892,95.438,541.12,538.393,0.0
50206.0,STARLINK-3258,PAYLOAD,2022-04-18 22:00:00,15.08837613,0.0001785,53.2162,137.2003,44.6496,135.4869,0.002579,0.00040993,0.0,0 STARLINK-3258,1 50206U 21125BC  22108.91667824  .00040993  00000-0  25790-2 0  9990,2 50206  53.2162 137.2003 0001785  44.6496 135.4869 15.08837613  3599,6917.888000000001,95.438,540.988,538.518,0.0
50206.0,STARLINK-3258,PAYLOAD,2022-04-19 06:00:00,15.08882817,0.0001878,53.2165,135.7048,43.8953,147.8493,-0.0040783,-0.00064689,0.0,0 STARLINK-3258,1 50206U 21125BC  22109.25001157 -.00064689  00000-0 -40783-2 0  9998,2 50206  53.2165 135.7048 0001878  43.8953 147.8493 15.08882817 20210,6917.75,95.435,540.914,538.315,0.0
50206.0,STARLINK-3258,PAYLOAD,2022-04-19 14:00:01,15.08832854,0.0001968,53.2164,134.2091,38.7931,164.5658,0.0014575,0.0002298,0.0,0 STARLINK-3258,1 50206U 21125BC  22109.58334491  .00022980  00000-0  14575-2 0  9990,2 50206  53.2164 134.2091 0001968  38.7931 164.5658 15.08832854  3632,6917.901999999999,95.438,541.129,538.406,0.0
50206.0,STARLINK-3258,PAYLOAD,2022-04-19 22:00:00,15.088247199999998,0.0001778,53.2167,132.7109,43.6273,171.3364,0.0027249,0.00043328,0.0,0 STARLINK-3258,1 50206U 21125BC  22109.91667824  .00043328  00000-0  27249-2 0  9997,2 50206  53.2167 132.7109 0001778  43.6273 171.3364 15.08824720 20318,6917.927,95.439,541.0219999999998,538.562,0.0
50206.0,STARLINK-3258,PAYLOAD,2022-04-20 14:00:01,15.08864031,0.0001956,53.2168,129.7198,38.6675,199.4969,-0.0022589,-0.00036083,0.0,0 STARLINK-3258,1 50206U 21125BC  22110.58334491 -.00036083  00000-0 -22589-2 0  9997,2 50206  53.2168 129.7198 0001956  38.6675 199.4969 15.08864031 20413,6917.807,95.436,541.025,538.319,0.0
